ION SCV-008             
1 55051U 23001AU  26068.82429008  .00008336  00000+0  31423-3 0  9992
2 55051  97.5676 163.6060 0015192   8.5420 351.6074 15.27226640176169
STARLINK-35657          
1 66399U 25257V   26068.71592492  .00019300  00000+0  66214-3 0  9999
2 66399  53.1573 217.1722 0000749 112.2619 247.8461 15.30196269 19726
